CS2                     
1 49262U 21088C   26068.73485932  .00018033  00000+0  56178-3 0  9999
2 49262  97.3928 134.2907 0011637  82.3491 277.9072 15.33255930245263
STARLINK-35303          
1 65860U 25223G   26068.88468308  .00031084  00000+0  10570-2 0  9996
2 65860  53.1601 293.4015 0000871 102.6986 257.4112 15.30208014 24232
